STARLINK-36697          
1 67698U 26025F   26058.29181328  .00088626  00000+0  45852-3 0  9992
2 67698  97.2850 169.3631 0000622 128.6746 231.4578 15.80827028  4300
STARLINK-36716          
1 67699U 26025G   26058.22677965  .00159965  00000+0  81840-3 0  9995
2 67699  97.2851 169.2980 0001502  96.5492 263.5947 15.80876005  4302
STARLINK-36712          
1 67700U 26025H   26058.25002315  .00085698  00000+0  57070-3 0  9991
2 67700  97.2854 169.3140 0001070  77.8746  31.7822 15.75148787  4121
STARLINK-36713          
1 67701U 26025J   26058.25002315  .00142096  00000+0  94080-3 0  9990
2 67701  97.2857 169.3090 0001253  86.1235  13.5519 15.75115556  4330
STARLINK-36695          
1 67702U 26025K   26058.25002315  .00138862  00000+0  91948-3 0  9997
2 67702  97.2860 169.3029 0001362  81.0354   6.6435 15.75122461  4179
STARLINK-36630          
1 67703U 26025L   26058.28387776  .00169980  00000+0  86919-3 0  9995
2 67703  97.2852 169.3724 0000704 115.6794 244.4547 15.80860930  4301
STARLINK-36338          
1 67704U 26025M   26058.28200762  .00062790  00000+0  32618-3 0  9993
2 67704  97.2852 169.3744 0000716  61.2288 298.9052 15.80817441  4305
STARLINK-36316          
1 67705U 26025N   26058.25002315  .00130837  00000+0  86699-3 0  9991
2 67705  97.2856 169.3314 0001335  82.3275  71.3307 15.75128371  4229
STARLINK-36707          
1 67706U 26025P   26058.27615075  .00038524  00000+0  20094-3 0  9994
2 67706  97.2849 169.3813 0001337  99.5437 260.5983 15.80819102  4304
STARLINK-36645          
1 67707U 26025Q   26058.25002315  .00138820  00000+0  91965-3 0  9995
2 67707  97.2861 169.3216 0001250  80.0160  51.6587 15.75111309  3786
STARLINK-36287          
1 67708U 26025R   26058.27438553  .00083261  00000+0  43115-3 0  9997
2 67708  97.2852 169.3833 0000916  81.2893 278.8479 15.80823166  4316
STARLINK-36698          
1 67709U 26025S   26058.26746096  .00103567  00000+0  53502-3 0  9994
2 67709  97.2851 169.3921 0001600  78.6063 281.5385 15.80816272  4300
