CCSDS_OMM_VERS = 2.0
CREATION_DATE  = 
ORIGINATOR     = 

OBJECT_NAME    = STARLINK-36697
OBJECT_ID      = 2026-025F
CENTER_NAME    = EARTH
REF_FRAME      = TEME
TIME_SYSTEM    = UTC
MEAN_ELEMENT_THEORY = SGP/SGP4

EPOCH          = 2026-02-27T07:00:12.667392
MEAN_MOTION    = 15.80827028
ECCENTRICITY   = .00006228
INCLINATION    = 97.2850
RA_OF_ASC_NODE = 169.3631
ARG_OF_PERICENTER = 128.6746
MEAN_ANOMALY   = 231.4578

EPHEMERIS_TYPE = 0
CLASSIFICATION_TYPE = U
NORAD_CAT_ID   = 67698
ELEMENT_SET_NO = 999
REV_AT_EPOCH   = 430
BSTAR          = .45852245E-3
MEAN_MOTION_DOT = .88626E-3
MEAN_MOTION_DDOT = 0

CCSDS_OMM_VERS = 2.0
CREATION_DATE  = 
ORIGINATOR     = 

OBJECT_NAME    = STARLINK-36716
OBJECT_ID      = 2026-025G
CENTER_NAME    = EARTH
REF_FRAME      = TEME
TIME_SYSTEM    = UTC
MEAN_ELEMENT_THEORY = SGP/SGP4

EPOCH          = 2026-02-27T05:26:33.761760
MEAN_MOTION    = 15.80876005
ECCENTRICITY   = .00015027
INCLINATION    = 97.2851
RA_OF_ASC_NODE = 169.2980
ARG_OF_PERICENTER = 96.5492
MEAN_ANOMALY   = 263.5947

EPHEMERIS_TYPE = 0
CLASSIFICATION_TYPE = U
NORAD_CAT_ID   = 67699
ELEMENT_SET_NO = 999
REV_AT_EPOCH   = 430
BSTAR          = .81839506E-3
MEAN_MOTION_DOT = .159965E-2
MEAN_MOTION_DDOT = 0

CCSDS_OMM_VERS = 2.0
CREATION_DATE  = 
ORIGINATOR     = 

OBJECT_NAME    = STARLINK-36712
OBJECT_ID      = 2026-025H
CENTER_NAME    = EARTH
REF_FRAME      = TEME
TIME_SYSTEM    = UTC
MEAN_ELEMENT_THEORY = SGP/SGP4

EPOCH          = 2026-02-27T06:00:02.000160
MEAN_MOTION    = 15.75148787
ECCENTRICITY   = .00010708
INCLINATION    = 97.2854
RA_OF_ASC_NODE = 169.3140
ARG_OF_PERICENTER = 77.8746
MEAN_ANOMALY   = 31.7822

EPHEMERIS_TYPE = 0
CLASSIFICATION_TYPE = U
NORAD_CAT_ID   = 67700
ELEMENT_SET_NO = 999
REV_AT_EPOCH   = 412
BSTAR          = .57069907E-3
MEAN_MOTION_DOT = .85698E-3
MEAN_MOTION_DDOT = 0

CCSDS_OMM_VERS = 2.0
CREATION_DATE  = 
ORIGINATOR     = 

OBJECT_NAME    = STARLINK-36713
OBJECT_ID      = 2026-025J
CENTER_NAME    = EARTH
REF_FRAME      = TEME
TIME_SYSTEM    = UTC
MEAN_ELEMENT_THEORY = SGP/SGP4

EPOCH          = 2026-02-27T06:00:02.000160
MEAN_MOTION    = 15.75115556
ECCENTRICITY   = .00012531
INCLINATION    = 97.2857
RA_OF_ASC_NODE = 169.3090
ARG_OF_PERICENTER = 86.1235
MEAN_ANOMALY   = 13.5519

EPHEMERIS_TYPE = 0
CLASSIFICATION_TYPE = U
NORAD_CAT_ID   = 67701
ELEMENT_SET_NO = 999
REV_AT_EPOCH   = 433
BSTAR          = .9408015E-3
MEAN_MOTION_DOT = .142096E-2
MEAN_MOTION_DDOT = 0

CCSDS_OMM_VERS = 2.0
CREATION_DATE  = 
ORIGINATOR     = 

OBJECT_NAME    = STARLINK-36695
OBJECT_ID      = 2026-025K
CENTER_NAME    = EARTH
REF_FRAME      = TEME
TIME_SYSTEM    = UTC
MEAN_ELEMENT_THEORY = SGP/SGP4

EPOCH          = 2026-02-27T06:00:02.000160
MEAN_MOTION    = 15.75122461
ECCENTRICITY   = .00013621
INCLINATION    = 97.2860
RA_OF_ASC_NODE = 169.3029
ARG_OF_PERICENTER = 81.0354
MEAN_ANOMALY   = 6.6435

EPHEMERIS_TYPE = 0
CLASSIFICATION_TYPE = U
NORAD_CAT_ID   = 67702
ELEMENT_SET_NO = 999
REV_AT_EPOCH   = 417
BSTAR          = .91947871E-3
MEAN_MOTION_DOT = .138862E-2
MEAN_MOTION_DDOT = 0

CCSDS_OMM_VERS = 2.0
CREATION_DATE  = 
ORIGINATOR     = 

OBJECT_NAME    = STARLINK-36630
OBJECT_ID      = 2026-025L
CENTER_NAME    = EARTH
REF_FRAME      = TEME
TIME_SYSTEM    = UTC
MEAN_ELEMENT_THEORY = SGP/SGP4

EPOCH          = 2026-02-27T06:48:47.038464
MEAN_MOTION    = 15.80860930
ECCENTRICITY   = .00007049
INCLINATION    = 97.2852
RA_OF_ASC_NODE = 169.3724
ARG_OF_PERICENTER = 115.6794
MEAN_ANOMALY   = 244.4547

EPHEMERIS_TYPE = 0
CLASSIFICATION_TYPE = U
NORAD_CAT_ID   = 67703
ELEMENT_SET_NO = 999
REV_AT_EPOCH   = 430
BSTAR          = .86919128E-3
MEAN_MOTION_DOT = .16998E-2
MEAN_MOTION_DDOT = 0

CCSDS_OMM_VERS = 2.0
CREATION_DATE  = 
ORIGINATOR     = 

OBJECT_NAME    = STARLINK-36338
OBJECT_ID      = 2026-025M
CENTER_NAME    = EARTH
REF_FRAME      = TEME
TIME_SYSTEM    = UTC
MEAN_ELEMENT_THEORY = SGP/SGP4

EPOCH          = 2026-02-27T06:46:05.458368
MEAN_MOTION    = 15.80817441
ECCENTRICITY   = .00007165
INCLINATION    = 97.2852
RA_OF_ASC_NODE = 169.3744
ARG_OF_PERICENTER = 61.2288
MEAN_ANOMALY   = 298.9052

EPHEMERIS_TYPE = 0
CLASSIFICATION_TYPE = U
NORAD_CAT_ID   = 67704
ELEMENT_SET_NO = 999
REV_AT_EPOCH   = 430
BSTAR          = .32617598E-3
MEAN_MOTION_DOT = .6279E-3
MEAN_MOTION_DDOT = 0

CCSDS_OMM_VERS = 2.0
CREATION_DATE  = 
ORIGINATOR     = 

OBJECT_NAME    = STARLINK-36316
OBJECT_ID      = 2026-025N
CENTER_NAME    = EARTH
REF_FRAME      = TEME
TIME_SYSTEM    = UTC
MEAN_ELEMENT_THEORY = SGP/SGP4

EPOCH          = 2026-02-27T06:00:02.000160
MEAN_MOTION    = 15.75128371
ECCENTRICITY   = .00013352
INCLINATION    = 97.2856
RA_OF_ASC_NODE = 169.3314
ARG_OF_PERICENTER = 82.3275
MEAN_ANOMALY   = 71.3307

EPHEMERIS_TYPE = 0
CLASSIFICATION_TYPE = U
NORAD_CAT_ID   = 67705
ELEMENT_SET_NO = 999
REV_AT_EPOCH   = 422
BSTAR          = .86698805E-3
MEAN_MOTION_DOT = .130837E-2
MEAN_MOTION_DDOT = 0

CCSDS_OMM_VERS = 2.0
CREATION_DATE  = 
ORIGINATOR     = 

OBJECT_NAME    = STARLINK-36707
OBJECT_ID      = 2026-025P
CENTER_NAME    = EARTH
REF_FRAME      = TEME
TIME_SYSTEM    = UTC
MEAN_ELEMENT_THEORY = SGP/SGP4

EPOCH          = 2026-02-27T06:37:39.424800
MEAN_MOTION    = 15.80819102
ECCENTRICITY   = .00013376
INCLINATION    = 97.2849
RA_OF_ASC_NODE = 169.3813
ARG_OF_PERICENTER = 99.5437
MEAN_ANOMALY   = 260.5983

EPHEMERIS_TYPE = 0
CLASSIFICATION_TYPE = U
NORAD_CAT_ID   = 67706
ELEMENT_SET_NO = 999
REV_AT_EPOCH   = 430
BSTAR          = .20094372E-3
MEAN_MOTION_DOT = .38524E-3
MEAN_MOTION_DDOT = 0

CCSDS_OMM_VERS = 2.0
CREATION_DATE  = 
ORIGINATOR     = 

OBJECT_NAME    = STARLINK-36645
OBJECT_ID      = 2026-025Q
CENTER_NAME    = EARTH
REF_FRAME      = TEME
TIME_SYSTEM    = UTC
MEAN_ELEMENT_THEORY = SGP/SGP4

EPOCH          = 2026-02-27T06:00:02.000160
MEAN_MOTION    = 15.75111309
ECCENTRICITY   = .00012508
INCLINATION    = 97.2861
RA_OF_ASC_NODE = 169.3216
ARG_OF_PERICENTER = 80.0160
MEAN_ANOMALY   = 51.6587

EPHEMERIS_TYPE = 0
CLASSIFICATION_TYPE = U
NORAD_CAT_ID   = 67707
ELEMENT_SET_NO = 999
REV_AT_EPOCH   = 378
BSTAR          = .9196515E-3
MEAN_MOTION_DOT = .13882E-2
MEAN_MOTION_DDOT = 0

CCSDS_OMM_VERS = 2.0
CREATION_DATE  = 
ORIGINATOR     = 

OBJECT_NAME    = STARLINK-36287
OBJECT_ID      = 2026-025R
CENTER_NAME    = EARTH
REF_FRAME      = TEME
TIME_SYSTEM    = UTC
MEAN_ELEMENT_THEORY = SGP/SGP4

EPOCH          = 2026-02-27T06:35:06.909792
MEAN_MOTION    = 15.80823166
ECCENTRICITY   = .0000916
INCLINATION    = 97.2852
RA_OF_ASC_NODE = 169.3833
ARG_OF_PERICENTER = 81.2893
MEAN_ANOMALY   = 278.8479

EPHEMERIS_TYPE = 0
CLASSIFICATION_TYPE = U
NORAD_CAT_ID   = 67708
ELEMENT_SET_NO = 999
REV_AT_EPOCH   = 431
BSTAR          = .4311494E-3
MEAN_MOTION_DOT = .83261E-3
MEAN_MOTION_DDOT = 0

CCSDS_OMM_VERS = 2.0
CREATION_DATE  = 
ORIGINATOR     = 

OBJECT_NAME    = STARLINK-36698
OBJECT_ID      = 2026-025S
CENTER_NAME    = EARTH
REF_FRAME      = TEME
TIME_SYSTEM    = UTC
MEAN_ELEMENT_THEORY = SGP/SGP4

EPOCH          = 2026-02-27T06:25:08.626944
MEAN_MOTION    = 15.80816272
ECCENTRICITY   = .00016004
INCLINATION    = 97.2851
RA_OF_ASC_NODE = 169.3921
ARG_OF_PERICENTER = 78.6063
MEAN_ANOMALY   = 281.5385

EPHEMERIS_TYPE = 0
CLASSIFICATION_TYPE = U
NORAD_CAT_ID   = 67709
ELEMENT_SET_NO = 999
REV_AT_EPOCH   = 430
BSTAR          = .53501905E-3
MEAN_MOTION_DOT = .103567E-2
MEAN_MOTION_DDOT = 0

